start=new Date('2022-06-23T00:00:00.000Z').valueOf();
sats=[{"APOAPSIS":"548.294","MEAN_MOTION_DOT":"-0.00000345","MEAN_ELEMENT_THEORY":"SGP4","COUNTRY_CODE":"US","PERIAPSIS":"546.200","EPOCH":"2022-06-22T18:55:21.402624","RA_OF_ASC_NODE":"8.7351","BSTAR":"-0.00000423510000","ELEMENT_SET_NO":"999","REF_FRAME":"TEME","MEAN_ANOMALY":"284.0631","LAUNCH_DATE":"2021-02-16","ARG_OF_PERICENTER":"76.0527","RCS_SIZE":"LARGE","OBJECT_NAME":"STARLINK-2027","CENTER_NAME":"EARTH","MEAN_MOTION":"15.06389175","PERIOD":"95.593","INCLINATION":"53.0570","ECCENTRICITY":"0.00015120","CLASSIFICATION_TYPE":"U","FILE":"3500001","REV_AT_EPOCH":"7601","SEMIMAJOR_AXIS":"6925.382","DECAY_DATE":null,"OBJECT_ID":"2021-012AB","SITE":"AFETR","MEAN_MOTION_DDOT":"0.0000000000000","NORAD_CAT_ID":"47645","OBJECT_TYPE":"PAYLOAD","TLE_LINE1":"1 47645U 21012AB  22173.78844216 -.00000345  00000-0 -42351-5 0  9991","TLE_LINE2":"2 47645  53.0570   8.7351 0001512  76.0527 284.0631 15.06389175 76011","EPHEMERIS_TYPE":"0","GP_ID":"206648055","TIME_SYSTEM":"UTC"},{"REV_AT_EPOCH":"7649","OBJECT_ID":"2021-012AC","SEMIMAJOR_AXIS":"6925.362","DECAY_DATE":null,"SITE":"AFETR","MEAN_MOTION_DDOT":"0.0000000000000","OBJECT_TYPE":"PAYLOAD","NORAD_CAT_ID":"47646","TLE_LINE2":"2 47646  53.0556 334.0976 0001547  73.8422 286.2737 15.06395492 76493","TLE_LINE1":"1 47646U 21012AC  22173.70872747  .00000573  00000-0  57375-4 0  9996","TIME_SYSTEM":"UTC","GP_ID":"206648306","EPHEMERIS_TYPE":"0","MEAN_MOTION_DOT":"0.00000573","APOAPSIS":"548.299","PERIAPSIS":"546.156","COUNTRY_CODE":"US","EPOCH":"2022-06-22T17:00:34.053408","MEAN_ELEMENT_THEORY":"SGP4","REF_FRAME":"TEME","ELEMENT_SET_NO":"999","MEAN_ANOMALY":"286.2737","RA_OF_ASC_NODE":"334.0976","BSTAR":"0.00005737500000","ARG_OF_PERICENTER":"73.8422","LAUNCH_DATE":"2021-02-16","CENTER_NAME":"EARTH","MEAN_MOTION":"15.06395492","RCS_SIZE":"LARGE","OBJECT_NAME":"STARLINK-2028","PERIOD":"95.592","INCLINATION":"53.0556","FILE":"3500001","CLASSIFICATION_TYPE":"U","ECCENTRICITY":"0.00015470"},{"TLE_LINE2":"2 47647  53.0544  37.9562 0001857  75.7802 284.3393 15.06396330 75643","TLE_LINE1":"1 47647U 21012AD  22173.91095989  .00000188  00000-0  31553-4 0  9997","TIME_SYSTEM":"UTC","EPHEMERIS_TYPE":"0","GP_ID":"206649057","MEAN_MOTION_DDOT":"0.0000000000000","OBJECT_TYPE":"PAYLOAD","NORAD_CAT_ID":"47647","SITE":"AFETR","REV_AT_EPOCH":"7564","OBJECT_ID":"2021-012AD","SEMIMAJOR_AXIS":"6925.360","DECAY_DATE":null,"INCLINATION":"53.0544","PERIOD":"95.592","FILE":"3500001","CLASSIFICATION_TYPE":"U","ECCENTRICITY":"0.00018570","ARG_OF_PERICENTER":"75.7802","LAUNCH_DATE":"2021-02-16","CENTER_NAME":"EARTH","MEAN_MOTION":"15.06396330","OBJECT_NAME":"STARLINK-2030","RCS_SIZE":"LARGE","MEAN_ANOMALY":"284.3393","REF_FRAME":"TEME","ELEMENT_SET_NO":"999","RA_OF_ASC_NODE":"37.9562","BSTAR":"0.00003155300000","MEAN_MOTION_DOT":"0.00000188","APOAPSIS":"548.511","EPOCH":"2022-06-22T21:51:46.934496","PERIAPSIS":"545.939","COUNTRY_CODE":"US","MEAN_ELEMENT_THEORY":"SGP4"},{"DECAY_DATE":null,"SEMIMAJOR_AXIS":"6925.330","OBJECT_ID":"2021-012AE","REV_AT_EPOCH":"7539","SITE":"AFETR","NORAD_CAT_ID":"47648","OBJECT_TYPE":"PAYLOAD","MEAN_MOTION_DDOT":"0.0000000000000","GP_ID":"206623439","EPHEMERIS_TYPE":"0","TIME_SYSTEM":"UTC","TLE_LINE1":"1 47648U 21012AE  22173.83539537  .00000505  00000-0  52760-4 0  9997","TLE_LINE2":"2 47648  53.0546  18.2924 0001515  70.8415 289.2738 15.06405937 75390","MEAN_ELEMENT_THEORY":"SGP4","EPOCH":"2022-06-22T20:02:58.159968","COUNTRY_CODE":"US","PERIAPSIS":"546.146","APOAPSIS":"548.245","MEAN_MOTION_DOT":"0.00000505","RA_OF_ASC_NODE":"18.2924","BSTAR":"0.00005276000000","MEAN_ANOMALY":"289.2738","REF_FRAME":"TEME","ELEMENT_SET_NO":"999","OBJECT_NAME":"STARLINK-2031","RCS_SIZE":"MEDIUM","CENTER_NAME":"EARTH","MEAN_MOTION":"15.06405937","LAUNCH_DATE":"2021-02-16","ARG_OF_PERICENTER":"70.8415","ECCENTRICITY":"0.00015150","FILE":"3499853","CLASSIFICATION_TYPE":"U","INCLINATION":"53.0546","PERIOD":"95.592"},{"OBJECT_ID":"2021-012AF","SEMIMAJOR_AXIS":"6925.363","DECAY_DATE":null,"REV_AT_EPOCH":"7591","SITE":"AFETR","OBJECT_TYPE":"PAYLOAD","NORAD_CAT_ID":"47649","MEAN_MOTION_DDOT":"0.0000000000000","TIME_SYSTEM":"UTC","EPHEMERIS_TYPE":"0","GP_ID":"206647555","TLE_LINE2":"2 47649  53.0561  18.2785 0001569  58.5662 301.5480 15.06395302 75913","TLE_LINE1":"1 47649U 21012AF  22173.83908563  .00000525  00000-0  54159-4 0  9993","COUNTRY_CODE":"US","PERIAPSIS":"546.141","EPOCH":"2022-06-22T20:08:16.998432","MEAN_ELEMENT_THEORY":"SGP4","MEAN_MOTION_DOT":"0.00000525","APOAPSIS":"548.315","REF_FRAME":"TEME","ELEMENT_SET_NO":"999","MEAN_ANOMALY":"301.5480","BSTAR":"0.00005415900000","RA_OF_ASC_NODE":"18.2785","MEAN_MOTION":"15.06395302","CENTER_NAME":"EARTH","RCS_SIZE":"LARGE","OBJECT_NAME":"STARLINK-2032","ARG_OF_PERICENTER":"58.5662","LAUNCH_DATE":"2021-02-16","FILE":"3500001","CLASSIFICATION_TYPE":"U","ECCENTRICITY":"0.00015690","PERIOD":"95.592","INCLINATION":"53.0561"},{"OBJECT_TYPE":"PAYLOAD","NORAD_CAT_ID":"47650","MEAN_MOTION_DDOT":"0.0000000000000","TIME_SYSTEM":"UTC","GP_ID":"206648807","EPHEMERIS_TYPE":"0","TLE_LINE2":"2 47650  53.0565  18.3437 0001443  62.5315 297.5820 15.06401944 75894","TLE_LINE1":"1 47650U 21012AG  22173.82433991  .00001855  00000-0  14341-3 0  9997","OBJECT_ID":"2021-012AG","DECAY_DATE":null,"SEMIMAJOR_AXIS":"6925.343","REV_AT_EPOCH":"7589","SITE":"AFETR","CENTER_NAME":"EARTH","MEAN_MOTION":"15.06401944","RCS_SIZE":"LARGE","OBJECT_NAME":"STARLINK-2033","ARG_OF_PERICENTER":"62.5315","LAUNCH_DATE":"2021-02-16","CLASSIFICATION_TYPE":"U","FILE":"3500001","ECCENTRICITY":"0.00014430","INCLINATION":"53.0565","PERIOD":"95.592","EPOCH":"2022-06-22T19:47:02.968224","PERIAPSIS":"546.208","COUNTRY_CODE":"US","MEAN_ELEMENT_THEORY":"SGP4","MEAN_MOTION_DOT":"0.00001855","APOAPSIS":"548.207","MEAN_ANOMALY":"297.5820","ELEMENT_SET_NO":"999","REF_FRAME":"TEME","BSTAR":"0.00014341000000","RA_OF_ASC_NODE":"18.3437"},{"MEAN_MOTION_DDOT":"0.0000000000000","OBJECT_TYPE":"PAYLOAD","NORAD_CAT_ID":"47651","TLE_LINE2":"2 47651  53.0568  37.9163 0001399  61.2768 298.8361 15.06391098 75644","TLE_LINE1":"1 47651U 21012AH  22173.92940151  .00000621  00000-0  60602-4 0  9992","TIME_SYSTEM":"UTC","GP_ID":"206648557","EPHEMERIS_TYPE":"0","REV_AT_EPOCH":"7564","OBJECT_ID":"2021-012AH","SEMIMAJOR_AXIS":"6925.376","DECAY_DATE":null,"SITE":"AFETR","ARG_OF_PERICENTER":"61.2768","LAUNCH_DATE":"2021-02-16","CENTER_NAME":"EARTH","MEAN_MOTION":"15.06391098","OBJECT_NAME":"STARLINK-2035","RCS_SIZE":"LARGE","PERIOD":"95.593","INCLINATION":"53.0568","CLASSIFICATION_TYPE":"U","FILE":"3500001","ECCENTRICITY":"0.00013990","MEAN_MOTION_DOT":"0.00000621","APOAPSIS":"548.210","COUNTRY_CODE":"US","PERIAPSIS":"546.272","EPOCH":"2022-06-22T22:18:20.290464","MEAN_ELEMENT_THEORY":"SGP4","ELEMENT_SET_NO":"999","REF_FRAME":"TEME","MEAN_ANOMALY":"298.8361","BSTAR":"0.00006060200000","RA_OF_ASC_NODE":"37.9163"},{"NORAD_CAT_ID":"47652","OBJECT_TYPE":"PAYLOAD","MEAN_MOTION_DDOT":"0.0000000000000","EPHEMERIS_TYPE":"0","GP_ID":"206624395","TIME_SYSTEM":"UTC","TLE_LINE1":"1 47652U 21012AJ  22173.88516161  .00003058  00000-0  22407-3 0  9995","TLE_LINE2":"2 47652  53.0548  38.0655 0001565  63.8444 296.2706 15.06403040 75113","SEMIMAJOR_AXIS":"6925.339","DECAY_DATE":null,"OBJECT_ID":"2021-012AJ","REV_AT_EPOCH":"7511","SITE":"AFETR","RCS_SIZE":"LARGE","OBJECT_NAME":"STARLINK-2036","CENTER_NAME":"EARTH","MEAN_MOTION":"15.06403040","LAUNCH_DATE":"2021-02-16","ARG_OF_PERICENTER":"63.8444","ECCENTRICITY":"0.00015650","CLASSIFICATION_TYPE":"U","FILE":"3499873","INCLINATION":"53.0548","PERIOD":"95.592","MEAN_ELEMENT_THEORY":"SGP4","EPOCH":"2022-06-22T21:14:37.963104","COUNTRY_CODE":"US","PERIAPSIS":"546.120","APOAPSIS":"548.288","MEAN_MOTION_DOT":"0.00003058","RA_OF_ASC_NODE":"38.0655","BSTAR":"0.00022407000000","MEAN_ANOMALY":"296.2706","REF_FRAME":"TEME","ELEMENT_SET_NO":"999"},{"MEAN_MOTION_DDOT":"0.0000000000000","NORAD_CAT_ID":"47653","OBJECT_TYPE":"PAYLOAD","TLE_LINE1":"1 47653U 21012AK  22173.81328868 -.00000305  00000-0 -15970-5 0  9997","TLE_LINE2":"2 47653  53.0566  18.3776 0001411  48.8393 311.2718 15.06393966 75896","EPHEMERIS_TYPE":"0","GP_ID":"206648056","TIME_SYSTEM":"UTC","REV_AT_EPOCH":"7589","SEMIMAJOR_AXIS":"6925.367","DECAY_DATE":null,"OBJECT_ID":"2021-012AK","SITE":"AFETR","LAUNCH_DATE":"2021-02-16","ARG_OF_PERICENTER":"48.8393","RCS_SIZE":"LARGE","OBJECT_NAME":"STARLINK-2037","MEAN_MOTION":"15.06393966","CENTER_NAME":"EARTH","INCLINATION":"53.0566","PERIOD":"95.593","ECCENTRICITY":"0.00014110","FILE":"3500001","CLASSIFICATION_TYPE":"U","APOAPSIS":"548.209","MEAN_MOTION_DOT":"-0.00000305","MEAN_ELEMENT_THEORY":"SGP4","EPOCH":"2022-06-22T19:31:08.141952","COUNTRY_CODE":"US","PERIAPSIS":"546.255","RA_OF_ASC_NODE":"18.3776","BSTAR":"-0.00000159700000","MEAN_ANOMALY":"311.2718","REF_FRAME":"TEME","ELEMENT_SET_NO":"999"},{"COUNTRY_CODE":"US","PERIAPSIS":"546.136","EPOCH":"2022-06-22T21:19:56.367840","MEAN_ELEMENT_THEORY":"SGP4","MEAN_MOTION_DOT":"0.00000511","APOAPSIS":"548.296","REF_FRAME":"TEME","ELEMENT_SET_NO":"999","MEAN_ANOMALY":"299.4350","RA_OF_ASC_NODE":"38.0504","BSTAR":"0.00005323200000","CENTER_NAME":"EARTH","MEAN_MOTION":"15.06399163","OBJECT_NAME":"STARLINK-2038","RCS_SIZE":"LARGE","ARG_OF_PERICENTER":"60.6795","LAUNCH_DATE":"2021-02-16","FILE":"3500001","CLASSIFICATION_TYPE":"U","ECCENTRICITY":"0.00015590","PERIOD":"95.592","INCLINATION":"53.0572","OBJECT_ID":"2021-012AL","DECAY_DATE":null,"SEMIMAJOR_AXIS":"6925.351","REV_AT_EPOCH":"7563","SITE":"AFETR","OBJECT_TYPE":"PAYLOAD","NORAD_CAT_ID":"47654","MEAN_MOTION_DDOT":"0.0000000000000","TIME_SYSTEM":"UTC","EPHEMERIS_TYPE":"0","GP_ID":"206648307","TLE_LINE2":"2 47654  53.0572  38.0504 0001559  60.6795 299.4350 15.06399163 75639","TLE_LINE1":"1 47654U 21012AL  22173.88884685  .00000511  00000-0  53232-4 0  9998"}];
